OBJECT_NAME,OBJECT_ID,EPOCH,MEAN_MOTION,ECCENTRICITY,INCLINATION,RA_OF_ASC_NODE,ARG_OF_PERICENTER,MEAN_ANOMALY,EPHEMERIS_TYPE,CLASSIFICATION_TYPE,NORAD_CAT_ID,ELEMENT_SET_NO,REV_AT_EPOCH,BSTAR,MEAN_MOTION_DOT,MEAN_MOTION_DDOT
SHIJIAN-20 (SJ-20),2019-097A,2026-07-17T06:38:31.619904,1.00270272,.0015416,4.9936,74.6938,57.5827,307.2224,0,U,44910,999,2400,0,.124E-5,0
TJS-5,2020-002A,2026-07-17T18:28:33.737088,1.00271863,.0008031,0.0709,77.1695,338.3782,264.6711,0,U,44978,999,2401,0,-.351E-5,0
GSAT-30,2020-005A,2026-07-17T23:55:55.601184,1.00272928,.00032104,0.0439,242.5120,207.1661,288.1048,0,U,45026,999,2381,0,-.174E-5,0
EUTELSAT KONNECT,2020-005B,2026-07-18T06:24:54.237024,1.00268756,.00018586,0.0682,93.7099,146.1168,159.6636,0,U,45027,999,2464,0,.41E-6,0
JCSAT-17,2020-013A,2026-07-18T07:01:43.206816,1.00271495,.00032033,5.3923,357.1666,127.8839,52.4888,0,U,45245,999,2354,0,-.323E-5,0
GEO-KOMPSAT-2B,2020-013B,2026-07-18T00:08:54.357216,1.00270642,.00003532,0.0180,238.4345,308.1781,239.6896,0,U,45246,999,2358,0,0,0
BEIDOU-3 G2,2020-017A,2026-07-17T23:55:10.673184,1.00272377,.00017687,2.9256,47.7776,59.2787,267.5564,0,U,45344,999,2356,0,-.15E-5,0
AEHF-6 (USA 298),2020-022B,2026-07-18T07:02:05.670816,1.00270415,.00419312,2.4811,301.5660,15.4555,222.3569,0,U,45465,999,2332,0,-.305E-5,0
BEIDOU-3 G3,2020-040A,2026-07-18T06:54:28.900800,1.00274975,.00022358,2.5221,67.4941,308.5280,134.1976,0,U,45807,999,2238,0,-.363E-5,0
APSTAR-6D,2020-045A,2026-07-18T07:01:05.767104,1.00280104,.00021459,0.0432,92.5886,2.3059,80.5040,0,U,45863,999,2217,0,-.324E-5,0
KOREASAT 116,2020-048A,2026-07-18T00:05:24.692064,1.00274609,.00008702,0.0163,319.8366,152.5277,300.9504,0,U,45920,999,2194,0,-.371E-5,0
EXPRESS 103,2020-053A,2026-07-18T06:50:29.284224,1.00272468,.00004759,0.0409,240.7231,187.7051,66.7797,0,U,45985,999,2196,0,-.288E-5,0
EXPRESS 80,2020-053B,2026-07-17T22:56:48.336000,1.00270961,.00011667,0.0165,36.6805,193.3460,129.9633,0,U,45986,999,2193,0,0,0
BSAT-4B,2020-056A,2026-07-18T06:54:13.925088,1.00268329,.00045543,0.0186,181.8001,307.8977,19.7925,0,U,46112,999,2170,0,0,0
MEV-2,2020-056B,2026-07-18T06:22:39.452160,1.00270395,.0000179,0.0539,254.5799,0.4543,135.6919,0,U,46113,999,8101,0,-.19E-6,0
GALAXY 30 (G-30),2020-056C,2026-07-18T05:18:38.669760,1.00271192,.00022943,0.0231,61.1838,58.1239,131.3923,0,U,46114,999,2160,0,0,0
GAOFEN-13 01,2020-071A,2026-07-17T17:34:38.713728,1.00277046,.00444552,0.4752,86.0992,119.9495,111.3333,0,U,46610,999,2122,0,-.372E-5,0
TIANTONG-1 2,2020-082A,2026-07-17T12:09:18.894816,1.00272600,.0001257,0.7551,332.0988,128.7405,141.7506,0,U,46916,999,2095,0,-.365E-5,0
LUCAS (JDRS-1),2020-089A,2026-07-18T02:36:38.656800,1.00269623,.00016863,0.0675,268.2406,181.0814,336.5395,0,U,47202,999,2072,0,-.243E-5,0
SXM-7,2020-096A,2026-07-18T05:58:34.260960,1.00271108,.00035516,0.0256,99.8252,18.2487,182.4613,0,U,47240,999,775,0,-.213E-5,0
CMS-01,2020-099A,2026-07-17T14:03:38.597760,1.00270753,.0003398,0.0810,90.8071,175.0160,323.4716,0,U,47256,999,2050,0,-.174E-5,0
TURKSAT 5A,2021-001A,2026-07-18T02:02:38.768352,1.00271928,.00000729,0.0156,74.7815,239.6017,43.0848,0,U,47306,999,2027,0,.146E-5,0
TIANTONG-1 3,2021-003A,2026-07-18T00:21:17.069760,1.00269846,.00030543,1.7338,341.2594,143.4123,257.9860,0,U,47321,999,2027,0,-.162E-5,0
TJS-6,2021-010A,2026-07-18T03:48:29.799936,1.00273492,.00030549,0.1718,261.3534,241.1110,29.1039,0,U,47613,999,2011,0,.35E-6,0
SBIRS GEO-5 (USA 315),2021-042A,2026-07-18T06:49:44.356224,1.00271343,.00015292,5.0649,329.3631,151.2185,11.7422,0,U,48618,999,1908,0,-.274E-5,0
FENGYUN 4B,2021-047A,2026-07-17T16:43:07.008960,1.00278349,.00068666,0.2267,80.0462,272.8504,297.9386,0,U,48808,999,1887,0,-.339E-5,0
SXM-8,2021-049A,2026-07-17T14:34:46.914816,1.00268602,.00058475,0.0193,51.3182,340.3427,37.2988,0,U,48838,999,1888,0,-.214E-5,0
TIANLIAN 1-05,2021-063A,2026-07-17T16:41:47.148576,1.00273205,.00011056,1.6707,80.4436,87.4798,34.8850,0,U,49011,999,1838,0,.98E-6,0
STAR ONE D2,2021-069A,2026-07-17T23:12:22.276800,1.00268937,.00025846,0.0092,13.2846,129.9470,70.5680,0,U,49055,999,1825,0,0,0
EUTELSAT QUANTUM,2021-069B,2026-07-18T04:53:53.221344,1.00272921,.00021354,0.0096,30.5740,79.4892,307.1008,0,U,49056,999,1823,0,.118E-5,0
ZHONGXING-2E,2021-071A,2026-07-18T06:50:44.259936,1.00270228,.00012073,0.0163,237.6826,257.8369,1.3412,0,U,49062,999,1835,0,0,0
TJS-7,2021-077A,2026-07-18T05:53:30.214176,1.00272944,.00029207,0.2764,263.7745,113.1768,267.9532,0,U,49115,999,986,0,-.132E-5,0
