SHIJIAN-20 (SJ-20)      
1 44910U 19097A   26198.27675486  .00000124  00000+0  00000+0 0  9990
2 44910   4.9936  74.6938 0015416  57.5827 307.2224  1.00270272 24006
TJS-5                   
1 44978U 20002A   26198.76983492 -.00000351  00000+0  00000+0 0  9998
2 44978   0.0709  77.1695 0008031 338.3782 264.6711  1.00271863 24013
GSAT-30                 
1 45026U 20005A   26198.99717131 -.00000174  00000+0  00000+0 0  9999
2 45026   0.0439 242.5120 0003210 207.1661 288.1048  1.00272928 23816
EUTELSAT KONNECT        
1 45027U 20005B   26199.26729441  .00000041  00000+0  00000+0 0  9990
2 45027   0.0682  93.7099 0001858 146.1168 159.6636  1.00268756 24649
JCSAT-17                
1 45245U 20013A   26199.29286119 -.00000323  00000+0  00000+0 0  9998
2 45245   5.3923 357.1666 0003203 127.8839  52.4888  1.00271495 23542
GEO-KOMPSAT-2B          
1 45246U 20013B   26199.00618469  .00000000  00000+0  00000+0 0  9996
2 45246   0.0180 238.4345 0000353 308.1781 239.6896  1.00270642 23583
BEIDOU-3 G2             
1 45344U 20017A   26198.99665131 -.00000150  00000+0  00000+0 0  9991
2 45344   2.9256  47.7776 0001768  59.2787 267.5564  1.00272377 23564
AEHF-6 (USA 298)        
1 45465U 20022B   26199.29312119 -.00000305  00000+0  00000+0 0  9992
2 45465   2.4811 301.5660 0041931  15.4555 222.3569  1.00270415 23325
BEIDOU-3 G3             
1 45807U 20040A   26199.28783450 -.00000363  00000+0  00000+0 0  9995
2 45807   2.5221  67.4941 0002235 308.5280 134.1976  1.00274975 22388
APSTAR-6D               
1 45863U 20045A   26199.29242786 -.00000324  00000+0  00000+0 0  9992
2 45863   0.0432  92.5886 0002145   2.3059  80.5040  1.00280104 22171
KOREASAT 116            
1 45920U 20048A   26199.00375801 -.00000371  00000+0  00000+0 0  9995
2 45920   0.0163 319.8366 0000870 152.5277 300.9504  1.00274609 21948
EXPRESS 103             
1 45985U 20053A   26199.28506116 -.00000288  00000+0  00000+0 0  9994
2 45985   0.0409 240.7231 0000475 187.7051  66.7797  1.00272468 21960
EXPRESS 80              
1 45986U 20053B   26198.95611500  .00000000  00000+0  00000+0 0  9993
2 45986   0.0165  36.6805 0001166 193.3460 129.9633  1.00270961 21938
BSAT-4B                 
1 46112U 20056A   26199.28766117  .00000000  00000+0  00000+0 0  9990
2 46112   0.0186 181.8001 0004554 307.8977  19.7925  1.00268329 21703
MEV-2                   
1 46113U 20056B   26199.26573440 -.00000019  00000+0  00000+0 0  9995
2 46113   0.0539 254.5799 0000179   0.4543 135.6919  1.00270395 81019
GALAXY 30 (G-30)        
1 46114U 20056C   26199.22128090  .00000000  00000+0  00000+0 0  9998
2 46114   0.0231  61.1838 0002294  58.1239 131.3923  1.00271192 21600
GAOFEN-13 01            
1 46610U 20071A   26198.73239252 -.00000372  00000+0  00000+0 0  9997
2 46610   0.4752  86.0992 0044455 119.9495 111.3333  1.00277046 21220
TIANTONG-1 2            
1 46916U 20082A   26198.50646869 -.00000365  00000+0  00000+0 0  9991
2 46916   0.7551 332.0988 0001257 128.7405 141.7506  1.00272600 20959
LUCAS (JDRS-1)          
1 47202U 20089A   26199.10878075 -.00000243  00000+0  00000+0 0  9995
2 47202   0.0675 268.2406 0001686 181.0814 336.5395  1.00269623 20721
SXM-7                   
1 47240U 20096A   26199.24900765 -.00000213  00000+0  00000+0 0  9999
2 47240   0.0256  99.8252 0003551  18.2487 182.4613  1.00271108  7755
CMS-01                  
1 47256U 20099A   26198.58586340 -.00000174  00000+0  00000+0 0  9990
2 47256   0.0810  90.8071 0003398 175.0160 323.4716  1.00270753 20501
TURKSAT 5A              
1 47306U 21001A   26199.08517093  .00000146  00000+0  00000+0 0  9993
2 47306   0.0156  74.7815 0000072 239.6017  43.0848  1.00271928 20271
TIANTONG-1 3            
1 47321U 21003A   26199.01478090 -.00000162  00000+0  00000+0 0  9997
2 47321   1.7338 341.2594 0003054 143.4123 257.9860  1.00269846 20273
TJS-6                   
1 47613U 21010A   26199.15867824  .00000035  00000+0  00000+0 0  9999
2 47613   0.1718 261.3534 0003054 241.1110  29.1039  1.00273492 20112
SBIRS GEO-5 (USA 315)   
1 48618U 21042A   26199.28454116 -.00000274  00000+0  00000+0 0  9996
2 48618   5.0649 329.3631 0001529 151.2185  11.7422  1.00271343 19086
FENGYUN 4B              
1 48808U 21047A   26198.69660890 -.00000339  00000+0  00000+0 0  9996
2 48808   0.2267  80.0462 0006866 272.8504 297.9386  1.00278349 18873
SXM-8                   
1 48838U 21049A   26198.60748744 -.00000214  00000+0  00000+0 0  9999
2 48838   0.0193  51.3182 0005847 340.3427  37.2988  1.00268602 18880
TIANLIAN 1-05           
1 49011U 21063A   26198.69568459  .00000098  00000+0  00000+0 0  9990
2 49011   1.6707  80.4436 0001105  87.4798  34.8850  1.00273205 18381
STAR ONE D2             
1 49055U 21069A   26198.96692450  .00000000  00000+0  00000+0 0  9996
2 49055   0.0092  13.2846 0002584 129.9470  70.5680  1.00268937 18259
EUTELSAT QUANTUM        
1 49056U 21069B   26199.20408821  .00000118  00000+0  00000+0 0  9992
2 49056   0.0096  30.5740 0002135  79.4892 307.1008  1.00272921 18237
ZHONGXING-2E            
1 49062U 21071A   26199.28523449  .00000000  00000+0  00000+0 0  9994
2 49062   0.0163 237.6826 0001207 257.8369   1.3412  1.00270228 18357
TJS-7                   
1 49115U 21077A   26199.24548859 -.00000132  00000+0  00000+0 0  9994
2 49115   0.2764 263.7745 0002920 113.1768 267.9532  1.00272944  9861
